ONEWEB-0094             
1 45450U 20020AC  24257.39322132 -.00002555  00000+0 -66146-2 0  9990
2 45450  87.9142 133.6783 0001489  75.3461 284.7835 13.17662329221798
ONEWEB-0087             
1 45451U 20020AD  24257.45170291  .00000471  00000+0  12928-2 0  9997
2 45451  87.8973 148.8312 0001488  70.6918 289.4371 13.11421596218482
ONEWEB-0082             
1 45452U 20020AE  24257.14326549  .00000413  00000+0  11304-2 0  9996
2 45452  87.8978 148.8999 0001765  76.2718 283.8606 13.11420774218539
ONEWEB-0050             
1 45453U 20020AF  24256.83063595  .00065254  00000+0  65565-2 0  9993
2 45453  88.0095   5.9397 0004346 115.1704 244.9976 14.90937652244672
ONEWEB-0034             
1 45454U 20020AG  24256.70754075  .00000299  00000+0  80862-3 0  9996
2 45454  87.8977 149.0052 0001721  73.0961 287.0355 13.11416610218384
ONEWEB-0060             
1 45455U 20020AH  24257.13154610 -.00000068  00000+0 -22740-3 0  9991
2 45455  87.8984 148.9396 0001827  68.3685 291.7637 13.11414120218401
ONEWEB-0086             
1 45456U 20020AJ  24256.73295993 -.00000503  00000+0 -14555-2 0  9995
2 45456  87.8978 149.0006 0001332  73.4879 286.6395 13.11417896218405
ONEWEB-0088             
1 45457U 20020AK  24257.24501223  .00000247  00000+0  66048-3 0  9997
2 45457  87.8970 148.8610 0001679  71.4419 288.6891 13.11416903218410
